ONEWEB-0532             
1 55140U 23004A   26002.11282613  .00000092  00000+0  20367-3 0  9999
2 55140  87.9102  38.8760 0001906 108.7918 251.3420 13.17649906145717
ONEWEB-0533             
1 55141U 23004B   26002.10791012  .00000336  00000+0  89745-3 0  9993
2 55141  87.8928  23.6484 0001902  90.9393 269.1954 13.12444899146273
ONEWEB-0541             
1 55142U 23004C   26002.16052006 -.00000435  00000+0 -12629-2 0  9991
2 55142  87.8839  54.1062 0001642 102.6297 257.5015 13.11416110144182
ONEWEB-0543             
1 55143U 23004D   26002.29778166 -.00000011  00000+0 -61720-4 0  9996
2 55143  87.9154   8.4318 0001775  79.4604 280.6728 13.18683854147831
ONEWEB-0544             
1 55144U 23004E   26002.29120846 -.00000040  00000+0 -13468-3 0  9990
2 55144  87.9160   8.4248 0001491  85.4200 274.7102 13.18685813147832
ONEWEB-0560             
1 55145U 23004F   26002.28459622 -.00000004  00000+0 -42513-4 0  9991
2 55145  87.9164   8.4138 0001522  83.1479 276.9826 13.18686895147842
ONEWEB-0565             
1 55146U 23004G   26002.27799578 -.00000040  00000+0 -13491-3 0  9990
2 55146  87.9153   8.4590 0001244  98.3010 261.8263 13.18686331147835
ONEWEB-0567             
1 55147U 23004H   26002.27139435  .00000078  00000+0  16473-3 0  9993
2 55147  87.9164   8.4290 0001307  89.7117 270.4165 13.18687209147839
ONEWEB-0569             
1 55148U 23004J   26002.24567766 -.00000029  00000+0 -11420-3 0  9998
2 55148  87.8991 353.1876 0001024  56.7878 303.3349 13.13469213148391
ONEWEB-0570             
1 55149U 23004K   26002.26150855  .00000050  00000+0  93731-4 0  9996
2 55149  87.9160   8.4310 0001710 105.3000 254.8322 13.18685888147825
ONEWEB-0571             
1 55150U 23004L   26002.25491595  .00000043  00000+0  75215-4 0  9995
2 55150  87.9159   8.4311 0000476 101.6006 258.5179 13.18685656147834
ONEWEB-0572             
1 55151U 23004M   26002.14319954  .00000056  00000+0  11077-3 0  9991
2 55151  87.9091  38.8783 0001576  99.2237 260.9073 13.17649329145610
ONEWEB-0573             
1 55152U 23004N   26002.24830951 -.00000004  00000+0 -42345-4 0  9996
2 55152  87.9152   8.4359 0001231 117.4339 242.6919 13.18685335147824
ONEWEB-0588             
1 55153U 23004P   26002.24170666  .00000038  00000+0  63413-4 0  9991
2 55153  87.9163   8.4345 0001580 105.3318 254.7989 13.18687616147827
ONEWEB-0598             
1 55154U 23004Q   26002.13848375  .00000502  00000+0  13815-2 0  9994
2 55154  87.8828  54.1363 0001144  94.3832 265.7426 13.11414120144137
ONEWEB-0599             
1 55155U 23004R   26002.10438937  .00000126  00000+0  29191-3 0  9998
2 55155  87.9090  38.8875 0001690  88.6685 271.4640 13.17650588145617
ONEWEB-0614             
1 55156U 23004S   26002.13340707  .00000583  00000+0  16100-2 0  9991
2 55156  87.8827  54.1458 0001954 105.0286 255.1058 13.11415997144075
